     3.02           N: GNSS NAV DATA    C: BEIDOU           RINEX VERSION / TYPE
LgsRinex v1.7.8.0   SMO                 20190428 130929 UTC PGM / RUN BY / DATE
BDSA   9.3132D-09  8.9407D-08 -1.0133D-06  2.2054D-06       IONOSPHERIC CORR
BDSB   1.2698D+05 -9.0112D+05  8.3231D+06 -8.3231D+06       IONOSPHERIC CORR
BDUT  1.1175870895D-08-9.769962617D-15  46385  695          TIME SYSTEM CORR
     4     4   573     6                                    LEAP SECONDS
                                                            END OF HEADER
C16 2019 04 28 11 00 00-6.407215259969D-04-7.540013058360D-11-1.179069862578D-18
     6.000000000000D+00 5.698437500000D+01 1.028971463590D-09 1.936688632821D+00
     2.169981598854D-06 2.355228178203D-03 1.931050792336D-05 6.492983793259D+03
     3.960000000000D+04-1.164153218269D-07-5.162573665001D-01 5.308538675308D-08
     9.610083930113D-01-3.576406250000D+02-2.876559571201D+00-1.758287515585D-09
     3.557291128331D-10                    6.950000000000D+02                   
     2.000000000000D+00 0.000000000000D+00-3.500000067547D-09 4.299999911694D-09
     3.960000000000D+04 5.000000000000D+00                                      
C18 2019 04 19 01 00 00-3.690761514008D-05-1.522337811366D-12 0.000000000000D+00
     2.400000000000D+01 8.078125000000D+01 2.188305536777D-09-2.598996708108D+00
     2.955086529255D-06 4.808012396097D-03-1.393770799041D-05 6.493271389008D+03
     4.356000000000D+05 4.982575774193D-08 1.521737191994D+00-6.379559636116D-08
     9.286740603737D-01 6.646406250000D+02 3.111648658874D+00-3.209419396910D-09
     1.725071890890D-10                    6.930000000000D+02                   
     2.000000000000D+00 1.000000000000D+00-3.010000071413D-08-3.010000071413D-08
     4.361700000000D+05 2.400000000000D+01                                      
C19 2019 04 28 00 00 00 9.216170292348D-05 7.953637748415D-12 0.000000000000D+00
     1.000000000000D+00-5.254687500000D+01 3.765156630919D-09-1.448455738430D+00
    -2.648215740919D-06 1.012846245430D-03 1.005409285426D-05 5.282625022888D+03
     0.000000000000D+00-1.676380634308D-08-1.142613271778D+00 6.519258022308D-09
     9.613673623866D-01 1.548906250000D+02-1.293054703890D+00-6.713851252726D-09
    -2.750114545813D-11                    6.950000000000D+02                   
     2.000000000000D+00 0.000000000000D+00 8.799999839937D-09 8.799999839937D-09
    -2.000000000000D-02 1.000000000000D+00                                      
C20 2019 04 27 22 00 00 2.477935049683D-04-1.365219048921D-11 0.000000000000D+00
     1.000000000000D+00-5.381250000000D+01 3.743727550187D-09-2.005822434213D+00
    -2.691987901926D-06 9.587792446837D-04 1.026783138514D-05 5.282625898361D+03
     5.976000000000D+05 8.847564458847D-09-1.021537637954D+00 3.352761268616D-08
     9.613690798524D-01 1.528125000000D+02-9.358450141584D-01-6.696350141056D-09
     3.000124801367D-11                    6.940000000000D+02                   
     2.000000000000D+00 0.000000000000D+00 1.509999947302D-08 1.509999947302D-08
     5.975999800000D+05 1.000000000000D+00                                      
C21 2019 04 27 02 00 00 4.502143710852D-04-2.232880547126D-12 0.000000000000D+00
     1.000000000000D+00-2.759375000000D+01 3.841231333013D-09-1.371424057797D+00
    -1.379754394293D-06 8.708043023944D-04 9.447801858187D-06 5.282625000000D+03
     5.256000000000D+05-3.119930624962D-08-1.018910573555D+00-1.816079020500D-08
     9.606473184968D-01 1.656562500000D+02-1.099238090124D+00-6.732066015758D-09
     9.464679734394D-11                    6.940000000000D+02                   
     2.000000000000D+00 0.000000000000D+00 1.069999999714D-08 1.069999999714D-08
     5.255999800000D+05 1.000000000000D+00                                      
C22 2019 04 28 02 00 00 2.863667905331D-04-2.034017398955D-11 0.000000000000D+00
     2.000000000000D+00-4.776562500000D+01 3.776943202638D-09-1.932699088446D+00
    -2.398155629635D-06 7.302021840587D-04 1.003826037049D-05 5.282627979279D+03
     7.200000000000D+03-3.445893526077D-08-1.139990594670D+00-3.026798367500D-08
     9.606656810445D-01 1.530468750000D+02-6.209827710193D-01-6.716708522703D-09
    -3.464430131661D-11                    6.950000000000D+02                   
     2.000000000000D+00 0.000000000000D+00 1.250000014608D-08 1.250000014608D-08
     7.199980000000D+03 2.000000000000D+00                                      
C23 2019 04 26 09 00 00-6.423583254218D-04-5.667022406897D-11 0.000000000000D+00
     1.000000000000D+00 3.681250000000D+01 3.951950322545D-09 8.594927594948D-01
     1.774635165930D-06 1.282703597099D-04 7.274094969034D-06 5.282625968933D+03
     4.644000000000D+05-2.933666110039D-08 1.094740071998D+00-2.048909664154D-08
     9.565633164274D-01 2.082656250000D+02 2.779634211814D+00-6.879214975442D-09
    -3.993023411919D-10                    6.940000000000D+02                   
     2.000000000000D+00 0.000000000000D+00 2.139999999429D-08 2.139999999429D-08
     4.643999800000D+05 1.000000000000D+00                                      
C24 2019 04 28 10 00 00-7.298372220248D-04-7.054801187678D-11 0.000000000000D+00
     1.000000000000D+00 1.407812500000D+01 4.192317604179D-09-2.945380631429D+00
     7.483176887035D-07 4.228702746332D-04 5.152542144060D-06 5.282621486664D+03
     3.600000000000D+04 2.793967723846D-09 9.729343074649D-01-9.173527359962D-08
     9.565045319902D-01 2.511562500000D+02 6.383574774655D-01-7.082795239199D-09
    -3.400141557197D-10                    6.950000000000D+02                   
     2.000000000000D+00 0.000000000000D+00 1.170000007988D-08 1.170000007988D-08
     3.599998000000D+04 1.000000000000D+00                                      
C25 2019 04 27 09 00 00-1.970556331798D-04-1.228528390129D-11 0.000000000000D+00
     1.000000000000D+00 2.296875000000D+01 4.015881405195D-09 3.086652681737D+00
     1.041684299707D-06 2.915189834312D-04 6.332527846098D-06 5.282626159668D+03
     5.508000000000D+05-5.401670932770D-08 1.067634138356D+00-3.213062882423D-08
     9.576080886321D-01 2.277343750000D+02 4.691425624708D-01-6.933860152714D-09
    -4.089455996059D-10                    6.940000000000D+02                   
     2.000000000000D+00 0.000000000000D+00-1.000000013351D-10-1.000000013351D-10
     5.507999800000D+05 1.000000000000D+00                                      
C26 2019 04 28 08 00 00 2.214991254732D-04 1.399858007289D-11 0.000000000000D+00
     1.000000000000D+00 1.551562500000D+01 4.118743124337D-09-2.765353625381D+00
     7.594935595989D-07 5.410539451987D-04 5.318783223629D-06 5.282623294830D+03
     2.880000000000D+04-1.909211277962D-08 9.471821391951D-01-4.796311259270D-08
     9.576435892651D-01 2.497656250000D+02 2.450033873631D-01-7.032078475078D-09
    -3.425142669489D-10                    6.950000000000D+02                   
     2.000000000000D+00 0.000000000000D+00-6.000000052353D-09-6.000000052353D-09
     2.879998000000D+04 1.000000000000D+00                                      
C27 2019 04 27 17 00 00 1.063555246219D-04 7.061906615036D-12 0.000000000000D+00
     1.000000000000D+00 2.765625000000D+01 3.874804477277D-09-3.134393993600D+00
     1.355074346066D-06 6.204053061083D-04 4.384666681290D-06 5.282620525360D+03
     5.796000000000D+05-2.887099981308D-08-3.087420169523D+00-7.264316082001D-08
     9.642849184288D-01 2.710468750000D+02 6.488476724128D-01-7.049222094935D-09
     5.178787260141D-11                    6.940000000000D+02                   
     2.000000000000D+00 0.000000000000D+00-5.700000027531D-09-5.700000027531D-09
     5.795999800000D+05 1.000000000000D+00                                      
C28 2019 04 27 15 00 00 1.043170923367D-04 6.828315690655D-12 0.000000000000D+00
     1.000000000000D+00 2.373437500000D+01 3.845160190252D-09-2.899239049744D-01
     1.155305653811D-06 1.108436845243D-04 4.397705197334D-06 5.282619138718D+03
     5.724000000000D+05-1.862645149231D-08-3.087480880623D+00-8.381903171539D-09
     9.641818163514D-01 2.729218750000D+02-2.384199537675D+00-7.036007332317D-09
     7.036007193539D-11                    6.940000000000D+02                   
     2.000000000000D+00 0.000000000000D+00 4.999999858590D-10 4.999999858590D-10
     5.724000000000D+05 1.000000000000D+00                                      
C29 2019 04 25 17 00 00 5.481892731041D-05 5.275779813019D-12 0.000000000000D+00
     1.000000000000D+00-4.484375000000D+01 3.927306480023D-09-3.131521726575D+00
    -2.170912921429D-06 1.917968038470D-04 2.996064722538D-06 5.282619710922D+03
     4.068000000000D+05-8.381903171539D-09-3.124163544146D+00-2.188608050346D-08
     9.636534293591D-01 3.000625000000D+02 8.016757734481D-01-7.116010891650D-09
    -1.332198379389D-10                    6.940000000000D+02                   
     2.000000000000D+00 0.000000000000D+00-1.299999996540D-09-1.299999996540D-09
     4.068000000000D+05 1.000000000000D+00                                      
C30 2019 04 26 17 00 00 1.128364820033D-04 6.614264691507D-12 0.000000000000D+00
     5.000000000000D+00-9.531250000000D-01 3.916591495567D-09-2.319823387258D+00
    -3.725290298462D-08 4.854424623773D-04 3.407243639231D-06 5.282618551254D+03
     4.932000000000D+05-2.933666110039D-08-3.124195732732D+00-5.308538675308D-08
     9.635907257643D-01 2.910937500000D+02-7.990890841250D-02-7.106724542183D-09
    -3.250135230393D-11                    6.940000000000D+02                   
     2.000000000000D+00 0.000000000000D+00-1.090000001369D-08-1.090000001369D-08
     4.931999800000D+05 5.000000000000D+00                                      
